{
  "type": "FeatureCollection",
  "features": [
    {
      "type": "Feature",
      "properties": {
        "norad_id": 29968,
        "name": "FENGYUN 1C DEB",
        "group": "fengyun-1c-debris",
        "lat": 22.57585035266191,
        "lon": -22.77155577831617,
        "alt_km": 818.914965605708,
        "timestamp": "2025-12-17T07:00:47.176665+00:00",
        "meta_object_name": "FENGYUN 1C DEB",
        "meta_object_id": "1999-025KS",
        "meta_epoch": "2025-12-16T22:37:48.280224",
        "meta_mean_motion": 14.0725996,
        "meta_eccentricity": 0.00898972,
        "meta_inclination": 98.8046,
        "meta_ra_of_asc_node": 340.5828,
        "meta_arg_of_pericenter": 342.9404,
        "meta_mean_anomaly": 70.7694,
        "meta_ephemeris_type": 0,
        "meta_classification_type": "U",
        "meta_norad_cat_id": 29968,
        "meta_element_set_no": 999,
        "meta_rev_at_epoch": 97108,
        "meta_bstar": 0.00015229877,
        "meta_mean_motion_dot": 2.22e-06,
        "meta_mean_motion_ddot": 0,
        "tle_line1": "1 29968U 99025KS  25350.94291991  .00000222  00000+0  15230-3 0  9997",
        "tle_line2": "2 29968  98.8046 340.5828 0089897 342.9404  70.7694 14.07259960971089"
      },
      "geometry": {
        "type": "Point",
        "coordinates": [
          -22.77155577831617,
          22.57585035266191
        ]
      }
    },
    {
      "type": "Feature",
      "properties": {
        "norad_id": 29969,
        "name": "FENGYUN 1C DEB",
        "group": "fengyun-1c-debris",
        "lat": 34.125844104890625,
        "lon": -98.33463902837637,
        "alt_km": 788.004993136854,
        "timestamp": "2025-12-17T07:00:47.176675+00:00",
        "meta_object_name": "FENGYUN 1C DEB",
        "meta_object_id": "1999-025KT",
        "meta_epoch": "2025-12-16T19:12:39.985056",
        "meta_mean_motion": 14.33255825,
        "meta_eccentricity": 0.00412435,
        "meta_inclination": 98.7723,
        "meta_ra_of_asc_node": 75.1605,
        "meta_arg_of_pericenter": 38.0207,
        "meta_mean_anomaly": 91.0019,
        "meta_ephemeris_type": 0,
        "meta_classification_type": "U",
        "meta_norad_cat_id": 29969,
        "meta_element_set_no": 999,
        "meta_rev_at_epoch": 97720,
        "meta_bstar": 0.0012560017,
        "meta_mean_motion_dot": 3.444e-05,
        "meta_mean_motion_ddot": 0,
        "tle_line1": "1 29969U 99025KT  25350.80046279  .00003444  00000+0  12560-2 0  9991",
        "tle_line2": "2 29969  98.7723  75.1605 0041243  38.0207  91.0019 14.33255825977204"
      },
      "geometry": {
        "type": "Point",
        "coordinates": [
          -98.33463902837637,
          34.125844104890625
        ]
      }
    },
    {
      "type": "Feature",
      "properties": {
        "norad_id": 29970,
        "name": "FENGYUN 1C DEB",
        "group": "fengyun-1c-debris",
        "lat": 14.244008892475778,
        "lon": 102.020083697383,
        "alt_km": 682.2207887295299,
        "timestamp": "2025-12-17T07:00:47.176686+00:00",
        "meta_object_name": "FENGYUN 1C DEB",
        "meta_object_id": "1999-025KU",
        "meta_epoch": "2025-12-16T18:51:45.381024",
        "meta_mean_motion": 14.43964342,
        "meta_eccentricity": 0.00909502,
        "meta_inclination": 98.8089,
        "meta_ra_of_asc_node": 279.2401,
        "meta_arg_of_pericenter": 175.3599,
        "meta_mean_anomaly": 240.0381,
        "meta_ephemeris_type": 0,
        "meta_classification_type": "U",
        "meta_norad_cat_id": 29970,
        "meta_element_set_no": 999,
        "meta_rev_at_epoch": 99179,
        "meta_bstar": 0.00035898338,
        "meta_mean_motion_dot": 1.239e-05,
        "meta_mean_motion_ddot": 0,
        "tle_line1": "1 29970U 99025KU  25350.78594191  .00001239  00000+0  35898-3 0  9991",
        "tle_line2": "2 29970  98.8089 279.2401 0090950 175.3599 240.0381 14.43964342991791"
      },
      "geometry": {
        "type": "Point",
        "coordinates": [
          102.020083697383,
          14.244008892475778
        ]
      }
    },
    {
      "type": "Feature",
      "properties": {
        "norad_id": 29971,
        "name": "FENGYUN 1C DEB",
        "group": "fengyun-1c-debris",
        "lat": 78.22712605292976,
        "lon": -16.195919374982296,
        "alt_km": 819.0147683132227,
        "timestamp": "2025-12-17T07:00:47.176697+00:00",
        "meta_object_name": "FENGYUN 1C DEB",
        "meta_object_id": "1999-025KV",
        "meta_epoch": "2025-12-17T00:09:55.886112",
        "meta_mean_motion": 14.18193735,
        "meta_eccentricity": 0.00240275,
        "meta_inclination": 98.6832,
        "meta_ra_of_asc_node": 30.6833,
        "meta_arg_of_pericenter": 155.8143,
        "meta_mean_anomaly": 270.6289,
        "meta_ephemeris_type": 0,
        "meta_classification_type": "U",
        "meta_norad_cat_id": 29971,
        "meta_element_set_no": 999,
        "meta_rev_at_epoch": 97400,
        "meta_bstar": 0.00067852767,
        "meta_mean_motion_dot": 1.356e-05,
        "meta_mean_motion_ddot": 0,
        "tle_line1": "1 29971U 99025KV  25351.00689683  .00001356  00000+0  67853-3 0  9995",
        "tle_line2": "2 29971  98.6832  30.6833 0024027 155.8143 270.6289 14.18193735974007"
      },
      "geometry": {
        "type": "Point",
        "coordinates": [
          -16.195919374982296,
          78.22712605292976
        ]
      }
    },
    {
      "type": "Feature",
      "properties": {
        "norad_id": 29972,
        "name": "FENGYUN 1C DEB",
        "group": "fengyun-1c-debris",
        "lat": -45.65262782829696,
        "lon": 13.035696223738542,
        "alt_km": 646.7335995566282,
        "timestamp": "2025-12-17T07:00:47.176707+00:00",
        "meta_object_name": "FENGYUN 1C DEB",
        "meta_object_id": "1999-025KW",
        "meta_epoch": "2025-12-16T23:18:35.930880",
        "meta_mean_motion": 14.66405913,
        "meta_eccentricity": 0.00645764,
        "meta_inclination": 98.9208,
        "meta_ra_of_asc_node": 3.44,
        "meta_arg_of_pericenter": 359.3412,
        "meta_mean_anomaly": 61.4927,
        "meta_ephemeris_type": 0,
        "meta_classification_type": "U",
        "meta_norad_cat_id": 29972,
        "meta_element_set_no": 999,
        "meta_rev_at_epoch": 99548,
        "meta_bstar": 0.00097032223,
        "meta_mean_motion_dot": 5.477e-05,
        "meta_mean_motion_ddot": 0,
        "tle_line1": "1 29972U 99025KW  25350.97124920  .00005477  00000+0  97032-3 0  9999",
        "tle_line2": "2 29972  98.9208   3.4400 0064576 359.3412  61.4927 14.66405913995486"
      },
      "geometry": {
        "type": "Point",
        "coordinates": [
          13.035696223738542,
          -45.65262782829696
        ]
      }
    },
    {
      "type": "Feature",
      "properties": {
        "norad_id": 29973,
        "name": "FENGYUN 1C DEB",
        "group": "fengyun-1c-debris",
        "lat": -24.49310504348476,
        "lon": 167.61327597029705,
        "alt_km": 860.6337265618131,
        "timestamp": "2025-12-17T07:00:47.176718+00:00",
        "meta_object_name": "FENGYUN 1C DEB",
        "meta_object_id": "1999-025KX",
        "meta_epoch": "2025-12-16T23:28:49.283616",
        "meta_mean_motion": 14.06544843,
        "meta_eccentricity": 0.00594078,
        "meta_inclination": 98.8424,
        "meta_ra_of_asc_node": 351.3733,
        "meta_arg_of_pericenter": 137.1478,
        "meta_mean_anomaly": 278.5256,
        "meta_ephemeris_type": 0,
        "meta_classification_type": "U",
        "meta_norad_cat_id": 29973,
        "meta_element_set_no": 999,
        "meta_rev_at_epoch": 96778,
        "meta_bstar": 0.00046484708,
        "meta_mean_motion_dot": 7.39e-06,
        "meta_mean_motion_ddot": 0,
        "tle_line1": "1 29973U 99025KX  25350.97834819  .00000739  00000+0  46485-3 0  9997",
        "tle_line2": "2 29973  98.8424 351.3733 0059407 137.1478 278.5256 14.06544843967789"
      },
      "geometry": {
        "type": "Point",
        "coordinates": [
          167.61327597029705,
          -24.49310504348476
        ]
      }
    },
    {
      "type": "Feature",
      "properties": {
        "norad_id": 29974,
        "name": "FENGYUN 1C DEB",
        "group": "fengyun-1c-debris",
        "lat": -19.290147197346514,
        "lon": -107.69164850022187,
        "alt_km": 869.3679798113399,
        "timestamp": "2025-12-17T07:00:47.176729+00:00",
        "meta_object_name": "FENGYUN 1C DEB",
        "meta_object_id": "1999-025KY",
        "meta_epoch": "2025-12-16T04:52:24.966336",
        "meta_mean_motion": 14.14863232,
        "meta_eccentricity": 0.00465187,
        "meta_inclination": 98.8941,
        "meta_ra_of_asc_node": 74.365,
        "meta_arg_of_pericenter": 72.3841,
        "meta_mean_anomaly": 342.1417,
        "meta_ephemeris_type": 0,
        "meta_classification_type": "U",
        "meta_norad_cat_id": 29974,
        "meta_element_set_no": 999,
        "meta_rev_at_epoch": 96974,
        "meta_bstar": 0.00083661958,
        "meta_mean_motion_dot": 1.588e-05,
        "meta_mean_motion_ddot": 0,
        "tle_line1": "1 29974U 99025KY  25350.20306674  .00001588  00000+0  83662-3 0  9998",
        "tle_line2": "2 29974  98.8941  74.3650 0046518  72.3841 342.1417 14.14863232969747"
      },
      "geometry": {
        "type": "Point",
        "coordinates": [
          -107.69164850022187,
          -19.290147197346514
        ]
      }
    }
  ]
}